[
    {
        "CCSDS_OMM_VERS": "3.0",
        "COMMENT": "GENERATED VIA SPACE-TRACK.ORG API",
        "CREATION_DATE": "2025-04-14T03:05:54",
        "ORIGINATOR": "18 SPCS",
        "OBJECT_NAME": "GALILEO 6 (262)",
        "OBJECT_ID": "2014-050B",
        "CENTER_NAME": "EARTH",
        "REF_FRAME": "TEME",
        "TIME_SYSTEM": "UTC",
        "MEAN_ELEMENT_THEORY": "SGP4",
        "EPOCH": "2025-04-13T13:29:34.813536",
        "MEAN_MOTION": "1.85520539",
        "ECCENTRICITY": "0.16256850",
        "INCLINATION": "49.3595",
        "RA_OF_ASC_NODE": "290.0225",
        "ARG_OF_PERICENTER": "163.5724",
        "MEAN_ANOMALY": "202.3825",
        "EPHEMERIS_TYPE": "0",
        "CLASSIFICATION_TYPE": "U",
        "NORAD_CAT_ID": "40129",
        "ELEMENT_SET_NO": "999",
        "REV_AT_EPOCH": "7251",
        "BSTAR": "0.00000000000000",
        "MEAN_MOTION_DOT": "-0.00000058",
        "MEAN_MOTION_DDOT": "0.0000000000000",
        "SEMIMAJOR_AXIS": "27977.389",
        "PERIOD": "776.194",
        "APOAPSIS": "26147.496",
        "PERIAPSIS": "17051.012",
        "OBJECT_TYPE": "PAYLOAD",
        "RCS_SIZE": "LARGE",
        "COUNTRY_CODE": "ESA",
        "LAUNCH_DATE": "2014-08-22",
        "SITE": "FRGUI",
        "DECAY_DATE": null,
        "FILE": "4701263",
        "GP_ID": "285536412",
        "TLE_LINE0": "0 GALILEO 6 (262)",
        "TLE_LINE1": "1 40129U 14050B   25103.56220849 -.00000058  00000-0  00000-0 0  9997",
        "TLE_LINE2": "2 40129  49.3595 290.0225 1625685 163.5724 202.3825  1.85520539 72519"
    }
]